[{"OBJECT_ID":"2006-007B","OBJECT_NAME":"EUTE 9A (HB 7A)","NORAD_CAT_ID":"28946","OBJECT_TYPE":"PAYLOAD","PERIOD":"1436.070","INCLINATION":"0.021","APOGEE":"35813.764","PERIGEE":"35758.386","ECCENTRICITY":"0.0006567","MEAN_MOTION":"1.00273645","TLE_LINE1":"1 28946U 06007B   16239.03420172  .00000059  00000-0  00000+0 0  9995","TLE_LINE2":"2 28946   0.0210 133.1060 0006567  36.6049 190.2959  1.00273645 38385","LAUNCH_DATE":"2006-03-11","LAUNCH_SITE":"FRENCH GUIANA","OWNER":"EUROPEAN TELECOMMUNICATIONS SATELLITE ORGANIZATION (EUTELSAT)","ORBIT_TYPE":"Geosynchronous","OPERATIONAL_STATUS":"Operational","satInfo":{"lng":15.066813732909235,"lat":-1.8126106659761942,"elevation":-10.336367278413345,"azimuth":299.9331862670908,"range":42859.35744964565,"height":35806.75790254598,"velocity":3.0729918591952488},"x":78,"y":-284,"dx":2.96735271093025,"dy":-0.7988096491750487},{"OBJECT_ID":"2006-010A","OBJECT_NAME":"JCSAT 9","NORAD_CAT_ID":"29045","OBJECT_TYPE":"PAYLOAD","PERIOD":"1436.161","INCLINATION":"0.0207","APOGEE":"35792.260","PERIGEE":"35783.473","ECCENTRICITY":"0.0001042","MEAN_MOTION":"1.00267255","TLE_LINE1":"1 29045U 06010A   16238.81438253 -.00000356  00000-0  00000+0 0  9995","TLE_LINE2":"2 29045   0.0207 114.3116 0001042  55.6940 229.7041  1.00267255 38020","LAUNCH_DATE":"2006-04-12","LAUNCH_SITE":"SEA LAUNCH","OWNER":"JAPAN","ORBIT_TYPE":"Geosynchronous","OPERATIONAL_STATUS":"Operational","satInfo":{"lng":126.81896732011434,"lat":1.422159320338218,"elevation":-7.1807250360093695,"azimuth":188.18103267988565,"range":42492.351763422295,"height":35793.91640950159,"velocity":3.074530385879054},"x":240,"y":175,"dx":-1.842531138361422,"dy":-2.4612631102468843},{"OBJECT_ID":"2006-010B","OBJECT_NAME":"BLOCK DM-SL R/B","NORAD_CAT_ID":"29046","OBJECT_TYPE":"ROCKET BODY","PERIOD":"656.283","INCLINATION":"0.201","APOGEE":"35616.224","PERIGEE":"1659.860","ECCENTRICITY":"0.6786881","MEAN_MOTION":"2.19417534","TLE_LINE1":"1 29046U 06010B   16238.77614104 +.00000004 +00000-0 +49193-1 0  9999","TLE_LINE2":"2 29046 000.2010 073.5395 6786881 139.9557 356.3969 02.19417534083155","LAUNCH_DATE":"2006-04-12","LAUNCH_SITE":"SEA LAUNCH","OWNER":"SEA LAUNCH DEMO","ORBIT_TYPE":"Highly Elliptical Orbit","OPERATIONAL_STATUS":"N/A, derelict rocket body","satInfo":{"lng":-0.11105279245403628,"lat":-2.231866009806201,"elevation":-10.883829275774316,"azimuth":315.1110527924541,"range":42216.00263443187,"height":35109.9259708317,"velocity":1.8094700038996208},"x":-1,"y":-288,"dx":1.8094666050264543,"dy":0.0035071792841364904},{"OBJECT_ID":"2006-012A","OBJECT_NAME":"ASTRA 1KR","NORAD_CAT_ID":"29055","OBJECT_TYPE":"PAYLOAD","PERIOD":"1436.067","INCLINATION":"0.0925","APOGEE":"35804.150","PERIGEE":"35767.872","ECCENTRICITY":"0.0004302","MEAN_MOTION":"1.00273872","TLE_LINE1":"1 29055U 06012A   16239.00535610  .00000092  00000-0  00000+0 0  9991","TLE_LINE2":"2 29055   0.0925 277.8934 0004302 277.3134 160.6126  1.00273872 37827","LAUNCH_DATE":"2006-04-20","LAUNCH_SITE":"AIR FORCE EASTERN TEST RANGE","OWNER":"SOCIÉTÉ EUROPÉENNE DES SATELLITES","ORBIT_TYPE":"Geosynchronous","OPERATIONAL_STATUS":"Operational","satInfo":{"lng":34.75679675441685,"lat":1.2858863347542708,"elevation":-7.315848946081997,"azimuth":280.2432032455831,"range":42499.696017313276,"height":35786.18748934018,"velocity":3.0740522296163815},"x":171,"y":-241,"dx":2.52557772776211,"dy":-1.7524994297977459},{"OBJECT_ID":"2006-018A","OBJECT_NAME":"GOES 13","NORAD_CAT_ID":"29155","OBJECT_TYPE":"PAYLOAD","PERIOD":"1436.069","INCLINATION":"0.046","APOGEE":"35797.802","PERIGEE":"35774.299","ECCENTRICITY":"0.0002787","MEAN_MOTION":"1.00273733","TLE_LINE1":"1 29155U 06018A   16239.27664244 -.00000279  00000-0  00000+0 0  9991","TLE_LINE2":"2 29155   0.0460 247.7262 0002787 225.6544 246.6412  1.00273733 37603","LAUNCH_DATE":"2006-05-24","LAUNCH_SITE":"AIR FORCE EASTERN TEST RANGE","OWNER":"UNITED STATES OF AMERICA","ORBIT_TYPE":"Geosynchronous","OPERATIONAL_STATUS":"Operational","satInfo":{"lng":-90.90252570027022,"lat":1.558438453982784,"elevation":-7.044064514978777,"azimuth":45.90252570027021,"range":42492.270447523086,"height":35808.99637957768,"velocity":3.073531952523023},"x":-300,"y":4,"dx":-0.04841241166135147,"dy":3.0731506473938306},{"OBJECT_ID":"2006-020A","OBJECT_NAME":"EUTE 113 WEST A(SATMEX 6","NORAD_CAT_ID":"29162","OBJECT_TYPE":"PAYLOAD","PERIOD":"1436.085","INCLINATION":"0.0643","APOGEE":"35798.139","PERIGEE":"35774.611","ECCENTRICITY":"0.000279","MEAN_MOTION":"1.00272574","TLE_LINE1":"1 29162U 06020A   16237.38865070 -.00000061  00000-0  00000+0 0  9991","TLE_LINE2":"2 29162   0.0643 296.2139 0002790 228.9565 194.8339  1.00272574 37535","LAUNCH_DATE":"2006-05-27","LAUNCH_SITE":"FRENCH GUIANA","OWNER":"EUROPEAN TELECOMMUNICATIONS SATELLITE ORGANIZATION (EUTELSAT)","ORBIT_TYPE":"Geosynchronous","OPERATIONAL_STATUS":"Operational","satInfo":{"lng":-104.94705283572597,"lat":-0.48101811309111414,"elevation":-9.044791888823685,"azimuth":59.94705283572594,"range":42687.08074698542,"height":35779.64580928267,"velocity":3.0750247747467596},"x":-290,"y":75,"dx":-0.793129825277107,"dy":2.9709800479912793},{"OBJECT_ID":"2006-020B","OBJECT_NAME":"THAICOM 5","NORAD_CAT_ID":"29163","OBJECT_TYPE":"PAYLOAD","PERIOD":"1436.087","INCLINATION":"0.047","APOGEE":"35805.822","PERIGEE":"35767.005","ECCENTRICITY":"0.0004603","MEAN_MOTION":"1.00272437","TLE_LINE1":"1 29163U 06020B   16238.92584662 -.00000149  00000-0  00000+0 0  9995","TLE_LINE2":"2 29163   0.0470 280.8243 0004603 296.2147 169.3569  1.00272437 37617","LAUNCH_DATE":"2006-05-27","LAUNCH_SITE":"FRENCH GUIANA","OWNER":"THAILAND","ORBIT_TYPE":"Geosynchronous","OPERATIONAL_STATUS":"Operational","satInfo":{"lng":71.95602093002957,"lat":0.038210027802709774,"elevation":-8.53306612165225,"azimuth":243.0439790699704,"range":42654.08559706591,"height":35803.79413019536,"velocity":3.073409319554967},"x":285,"y":-91,"dx":0.9519790547260198,"dy":-2.922256101865523},{"OBJECT_ID":"2006-023A","OBJECT_NAME":"GALAXY 16","NORAD_CAT_ID":"29236","OBJECT_TYPE":"PAYLOAD","PERIOD":"1436.092","INCLINATION":"0.0488","APOGEE":"35797.863","PERIGEE":"35775.170","ECCENTRICITY":"0.0002691","MEAN_MOTION":"1.00272071","TLE_LINE1":"1 29236U 06023A   16238.60920390 -.00000153 +00000-0 +00000-0 0  9992","TLE_LINE2":"2 29236 000.0488 246.8559 0002691 279.0743 288.6636 01.00272071037305","LAUNCH_DATE":"2006-06-18","LAUNCH_SITE":"SEA LAUNCH","OWNER":"UNITED STATES OF AMERICA","ORBIT_TYPE":"Geosynchronous","OPERATIONAL_STATUS":"Operational","satInfo":{"lng":-104.70143722095952,"lat":1.2110003689351385,"elevation":-7.389099222429324,"azimuth":59.701437220959505,"range":42508.5561632275,"height":35786.82141764505,"velocity":3.074772226664779},"x":-290,"y":74,"dx":-0.7803224837940361,"dy":2.974108449124643},{"OBJECT_ID":"2006-023B","OBJECT_NAME":"BLOCK DM-SL R/B","NORAD_CAT_ID":"29237","OBJECT_TYPE":"ROCKET BODY","PERIOD":"667.012","INCLINATION":"0.8927","APOGEE":"35635.738","PERIGEE":"2184.193","ECCENTRICITY":"0.6614088","MEAN_MOTION":"2.15887969","TLE_LINE1":"1 29237U 06023B   16238.62226272 -.00000029 +00000-0 +00000-0 0  9995","TLE_LINE2":"2 29237 000.8927 322.4846 6614088 266.6927 243.8886 02.15887969080306","LAUNCH_DATE":"2006-06-18","LAUNCH_SITE":"SEA LAUNCH","OWNER":"SEA LAUNCH DEMO","ORBIT_TYPE":"Highly Elliptical Orbit","OPERATIONAL_STATUS":"N/A, derelict rocket body","satInfo":{"lng":-95.31511814449858,"lat":-0.45793440766810856,"elevation":-18.69458190952507,"azimuth":50.31511814449856,"range":20312.289085593544,"height":12863.100927380176,"velocity":5.066300464283561},"x":-107,"y":9,"dx":-0.469308219656667,"dy":5.044516843996313},{"OBJECT_ID":"2006-032A","OBJECT_NAME":"EUTE HOT BIRD 13B (HB 8)","NORAD_CAT_ID":"29270","OBJECT_TYPE":"PAYLOAD","PERIOD":"1436.075","INCLINATION":"0.0674","APOGEE":"35793.920","PERIGEE":"35778.429","ECCENTRICITY":"0.0001837","MEAN_MOTION":"1.00273291","TLE_LINE1":"1 29270U 06032A   16239.04834281  .00000059  00000-0  00000+0 0  9995","TLE_LINE2":"2 29270   0.0674  18.0905 0001837 137.8247 209.1736  1.00273291 36948","LAUNCH_DATE":"2006-08-04","LAUNCH_SITE":"TYURATAM MISSILE AND SPACE COMPLEX","OWNER":"EUROPEAN TELECOMMUNICATIONS SATELLITE ORGANIZATION (EUTELSAT)","ORBIT_TYPE":"Geosynchronous","OPERATIONAL_STATUS":"Operational","satInfo":{"lng":14.958721477680413,"lat":0.2871475215396966,"elevation":-8.293216829576549,"azimuth":300.0412785223196,"range":42609.962450363266,"height":35786.77661773881,"velocity":3.074452235926143},"x":77,"y":-284,"dx":2.9702653239087686,"dy":-0.7935870819112406},{"OBJECT_ID":"2006-033A","OBJECT_NAME":"JCSAT 10","NORAD_CAT_ID":"29272","OBJECT_TYPE":"PAYLOAD","PERIOD":"1436.120","INCLINATION":"0.037","APOGEE":"35795.336","PERIGEE":"35778.765","ECCENTRICITY":"0.0001965","MEAN_MOTION":"1.00270165","TLE_LINE1":"1 29272U 06033A   16238.81438253 -.00000372  00000-0  00000+0 0  9990","TLE_LINE2":"2 29272   0.0370 300.5483 0001965 208.5065 246.6055  1.00270165 36845","LAUNCH_DATE":"2006-08-11","LAUNCH_SITE":"FRENCH GUIANA","OWNER":"JAPAN","ORBIT_TYPE":"Geosynchronous","OPERATIONAL_STATUS":"Operational","satInfo":{"lng":109.57357147403995,"lat":-0.5889571512461445,"elevation":-9.14572240520724,"azimuth":205.42642852596006,"range":42720.491397741935,"height":35801.48693695356,"velocity":3.0743427517494952},"x":283,"y":98,"dx":-1.0299570738024493,"dy":-2.8966828927859805}]